group,placeName,lineNumber,station,address,lat,lng
미술관,ADM 갤러리,2호선,역삼역,서울 강남구 역삼로14길 20,37.49318 ,127.03562 
공연장,CKL 스테이지,1호선,종각역,서울 중구 청계천로 40,37.56853 ,126.98161 
문화예술회관,DDP,"2호선, 4호선, 5호선",동대문역사문화공원역,서울 중구 을지로 281,37.56653 ,127.00923 
공연장,JCC 아트센터,4호선,혜화역,서울 종로구 혜화동  창경궁로35길 29,37.58729 ,127.00201 
미술관,kp 갤러리,"1호선, 4호선, 공항철도",서울역,서울 용산구 소월로2나길 12,37.55330 ,126.97730 
공연장,KT&G 상상아트홀,2호선,삼성역,서울 강남구 대치동 영동대로 416,37.50657 ,127.06534 
공연장,KT체임버홀,5호선,오목교역,서울 양천구 목동서로 201,37.52927 ,126.87115 
미술관,LG 사이언스홀,5호선,여의나루역,서울 영등포구 여의도동 20,37.52799 ,126.92926 
공연장,LG아트센터,2호선,역삼역,서울 강남구 역삼동 논현로 508,37.50230 ,127.03753 
기타,N서울타워,3호선,동대입구역,서울 용산구 용산동2가 1-3,37.55123 ,126.98821 
미술관,OCI미술관,1호선,종각역,서울 종로구 우정국로 45-14,37.57317 ,126.98208 
미술관,pkm gallery,3호선,안국역,서울 종로구 화동  율곡로3길 74-9,37.58407 ,126.98014 
공연/전시장,SETEC전시장,3호선,학여울역,서울 강남구 남부순환로 3104,37.49574 ,127.07180 
공연장,SJ비보이극장,"2호선, 경의선, 공항철도",홍대입구역,서울 마포구 서교동  와우산로 121,37.55348 ,126.92677 
미술관,가나아트 한남,6호선,이태원역,서울 용산구 대사관로 35,37.53398 ,127.00200 
미술관,가나아트센터,3호선,경복궁역,서울 종로구 평창동 평창30길 28,37.61220 ,126.97510 
기타,가락몰 쿠킹스튜디오,"3호선, 8호선",가락시장역,서울 송파구 양재대로 932,37.49315 ,127.11236 
미술관,가람화랑,3호선,안국역,서울 종로구 관훈동 30-10,37.57459 ,126.98427 
박물관/기념관,가톨릭대학교 전례박물관,4호선,한성대입구역,서울 종로구 혜화동 90-1,37.58581 ,127.00482 
박물관/기념관,가회민화박물관,3호선,안국역,서울 종로구 북촌로 52,37.58145 ,126.98524 
미술관,간송미술관,4호선,한성대입구역,서울 성북구 성북동 성북로 102-11,37.59454 ,126.99662 
공연장,갈갈이홀,4호선,혜화역,서울 종로구 동숭동 1-100,37.58099 ,127.00350 
문화예술회관,갈산문화예술센터,2호선,양천구청역,서울 양천구 신정동 1325-3,37.51064 ,126.87019 
기타,강남구민체육관,3호선,매봉역,서울 강남구 개포동 1271,37.47715 ,127.05189 
문화예술회관,강남구민회관,3호선,대치역,서울 강남구 대치동 509-2,37.49389 ,127.06426 
공연장,강남구민회관강당,3호선,대치역,서울 강남구 대치동 509-2,37.49389 ,127.06426 
문화예술회관,강남문화재단,"7호선, 수인분당선",강남구청역,서울 강남구 선릉로 668 5층,37.51646 ,127.04209 
기타,강남스포츠문화센터,"3호선, 수인분당선",수서역,서울 강남구 수서동 718,37.48910 ,127.10527 
공연장,강남씨어터,"2호선, 신분당선",강남역,서울 강남구 역삼로7길 16 3층,37.49527 ,127.03323 
문화예술회관,강남힐링센터,9호선,봉은사역,서울 강남구 테헤란로87길 46,37.51033 ,127.05856 
공연장,강동아트센터,5호선,고덕역,서울 강동구 상일동 (동남로) 870,37.55119 ,127.15740 
공연장,강동어린이회관아이누리홀,8호선,강동구청역,서울 강동구 성내동 556-1,37.52915 ,127.12243 
유적지,서울 태릉과 강릉,경춘선선,갈매역,서울 노원구 화랑로 727,37.63642 ,127.09787 
문화예술회관,강북문화예술회관,우이신설경전철,가오리역,서울 강북구 수유동 360-10,37.64080 ,127.01315 
기타,강북웰빙스포츠센터,4호선,수유역,서울 강북구 번동 318,37.63042 ,127.03777 
문화예술회관,강서구민회관,5호선,발산역,서울 강서구 내발산동 19-1,37.55340 ,126.84374 
기타,개운산스포츠센터,우이신설경전철,성신여대입구역,서울 성북구 북악산로 949-60,37.59685 ,127.02624 
문화예술회관,개포디지털혁신파크 열림관,수인분당선,개포동역,서울 강남구 개포동 153-153,37.48823 ,127.06479 
미술관,갤러리 JJ,7호선,학동역,서울 강남구 논현로 745,37.51829 ,127.02844 
미술관,갤러리 가이아,3호선,안국역,서울 종로구 관훈동 145,37.57508 ,126.98346 
미술관,갤러리 구루지,"2호선, 7호선",대림역,서울 구로구 가마산로25길 21,37.49707 ,126.88956 
미술관,갤러리 도올,3호선,안국역,서울 종로구 팔판동 27-6,37.58321 ,126.98168 
미술관,갤러리 라메르,1호선,종각역,서울 종로구 인사동 194 5길 26,37.57261 ,126.98489 
미술관,갤러리 룩스,3호선,경복궁역,서울 종로구 관훈동 185,37.58161 ,126.96785 
미술관,갤러리 비선재,경의선,한남역,서울 용산구 유엔빌리지3길 54-14,37.53574 ,127.01424 
미술관,갤러리 세줄,3호선,경복궁역,서울 종로구 평창동 464-13,37.61340 ,126.97514 
미술관,갤러리 아트사이드,3호선,경복궁역,서울 종로구 관훈동 170,37.57825 ,126.97294 
미술관,갤러리 원,수인분당선,압구정로데오역,서울 강남구 청담동 101-5,37.52753 ,127.04589 
미술관,갤러리 인,경의선,가좌역,서울 종로구 팔판동 141,,
미술관,갤러리 조은,6호선,한강진역,서울 용산구 이태원로55가길 3,37.53805 ,127.00063 
미술관,갤러리 현대,3호선,안국역,서울 종로구 사간동 122,37.57723 ,126.97992 
공연/전시장,히든플레이스,2호선,이대역,서울 서대문구 대현동 53-9,37.55843 ,126.94625 
미술관,갤러리BK,6호선,한강진역,서울 용산구 이태원로42길 56,37.53694 ,127.00129 
미술관,갤러리미즈,3호선,안국역,서울 종로구 삼일대로 461 SK HUB빌딩 101동 B105,37.57624 ,126.98504 
유적지,거창신씨묘역,"3호선, 5호선",오금역,서울 송파구 오금동,37.50198 ,127.13060 
박물관/기념관,건국대학교 박물관,7호선,어린이대공원역,서울 광진구 화양동 1,37.54253 ,127.07564 
공연장,건국대학교 새천년대공연장,"2호선, 7호선",건대입구역,서울 광진구 화양동 1,,
미술관,겸재정선미술관,9호선,양천향교역,서울 강서구 가양동 243-1,37.57225 ,126.83844 
유적지,경교장,5호선,서대문역,서울 종로구 새문안로 29,37.56849 ,126.96801 
박물관/기념관,경기여고 경운박물관,수인분당선,개포동역,서울 강남구 개포동 152,37.48786 ,127.06603 
유적지,경복궁,3호선,경복궁역,서울 종로구 사직로 161,37.57964 ,126.97704 
기타,경의선 책거리,"2호선, 경의선, 공항철도",홍대입구역,서울 마포구 와우산로37길 35,37.55626 ,126.92930 
미술관,경인미술관,3호선,안국역,서울 종로구 관훈동 30-1,37.57442 ,126.98541 
박물관/기념관,경찰박물관,3호선,독립문역,서울 종로구 신문로2가 58,37.57214 ,126.96165 
미술관,경춘선숲길 갤러리,6호선,화랑대역,서울 노원구 화랑로 608,37.62506 ,127.09372 
공연장,경향아트힐 2층 썬앤문 전용관,5호선,서대문역,서울 중구 정동길 3,37.56814 ,126.96996 
유적지,경희궁,5호선,광화문역,서울 종로구 새문안로 45,37.57126 ,126.96817 
박물관/기념관,경희대학교 자연사박물관,1호선,외대앞역,서울 동대문구 회기동 130-701,37.59772 ,127.05513 
박물관/기념관,경희대학교 중앙박물관,"1호선, 경의선, 경춘선",회기역,서울 동대문구 경희대로6길 7-13,37.59537 ,127.05277 
박물관/기념관,고려대학교 박물관,6호선,고려대역,서울 성북구 안암동5가 1-2,37.58940 ,127.03453 
미술관,공갤러리,3호선,안국역,서울 종로구 인사동 23-2 2-2,,
유적지,공민왕신당,"1호선, 3호선, 5호선",종로3가역,서울 종로구 종로 157,37.57274 ,126.99510 
박물관/기념관,공평도시유적전시관,1호선,종각역,서울 종로구 우정국로 26,37.57189 ,126.98333 
박물관/기념관,관문사 성보박물관,3호선,양재역,서울 서초구 우면동  바우뫼로7길 111,37.47367 ,127.02200 
기타,관악구민종합체육센터,2호선,낙성대역,서울 관악구 낙성대로3길 37,,
문화예술회관,관악문화재단,2호선,서울대입구역,서울 관악구 신림로3길 35,37.46755 ,126.94486 
공연장,관악아트홀,2호선,서울대입구역,서울 관악구 신림로 3길 35,37.46755 ,126.94486 
미술관,관훈갤러리,3호선,안국역,서울 종로구 관훈동 195,37.57379 ,126.98422 
유적지,광개토대왕릉비,"4호선, 6호선",삼각지역,서울 용산구 이태원로 29,37.53666 ,126.97714 
공연/전시장,광진교 8번가,5호선,광나루역,서울 강동구 천호2동 527-2,37.54504 ,127.11250 
공연장,광진구민체육센터,5호선,광나루역,서울 광진구 구천면로 2,,
유적지,광평대군묘,3호선,일원역,서울 강남구 광평로31길 20,37.48663 ,127.09215 
유적지,광화문,3호선,경복궁역,서울 종로구 효자로 12,37.57597 ,126.97691 
문화예술회관,광화문아트홀,3호선,독립문역,서울 종로구 인왕산로1길 21,37.57429 ,126.96461 
공연장,구로 꿈나무극장,7호선,남구로역,서울 구로구 구로동로26길 54,37.48961 ,126.88647 
기타,구로구민체육센터,1호선,개봉역,서울 구로구 고척로45길 39,,
공연장,구로구민회관 대강당,"2호선, 7호선",대림역,서울 구로구 구로동 102,37.49709 ,126.88956 
문화예술회관,구로아트밸리예술극장,"2호선, 7호선",대림역,서울 구로구 구로동 101,37.49653 ,126.88890 
미술관,구슬모아당구장,1호선,종각역,서울 용산구 독서당로 85,,
문화원,국기원,"2호선, 신분당선",강남역,서울  강남구 역삼동 635,,
유적지,국립4.19민주묘지,우이신설경전철,4.19민주묘지역,서울 강북구 수유동,37.64855 ,127.00767 
박물관/기념관,국립고궁박물관,3호선,경복궁역,서울 종로구 세종로 1-57,37.57663 ,126.97496 
공연장,국립국악원,3호선,남부터미널역,서울 서초구 서초동  남부순환로 2364,37.47779 ,127.00830 
기타,국립국어원 우리말 꿈터,5호선,방화역,서울 강서구 방화동 827,,
공연장,국립극단 백성희장민호극장,"1호선, 4호선, 공항철도",서울역,서울 용산구 청파로 373,37.55282 ,126.96811 
공연장,국립극단 소극장 판,"1호선, 4호선, 공항철도",서울역,서울 용산구 청파로 373,37.55282 ,126.96811 
공연장,국립극장,3호선,동대입구역,서울 중구 장충단로 59,37.55257 ,126.99962 
박물관/기념관,국립민속박물관,3호선,안국역,서울 종로구 세종로 1-1,37.58168 ,126.97899 
문화예술회관,국립박물관문화재단,3호선,경복궁역,서울 용산구 서빙고로 137,37.52390 ,126.98046 
박물관/기념관,국립서울과학관,4호선,혜화역,서울 종로구 와룡동 110-360,37.58227 ,126.99699 
유적지,국립서울현충원,"4호선, 9호선",동작역,서울 동작구 동작동 271-18,37.50061 ,126.97264 
공연장,국립중앙극장,3호선,동대입구역,서울 중구 장충동2가 14-67,,
박물관/기념관,국립중앙박물관,"4호선, 경의선",이촌역,서울 용산구 서빙고로 137,37.52390 ,126.98046 
공연장,국립중앙박물관 극장 용,"4호선, 경의선",이촌역,서울 용산구 용산동6가 168-6,37.52390 ,126.98046 
박물관/기념관,국립한글박물관,"4호선, 경의선",이촌역,서울 용산구 용산동6가 412-6,37.52103 ,126.98096 
미술관,국립현대미술관,"1호선, 2호선",시청역,서울 중구 정동 세종대로 99,,
미술관,국립현대미술관 덕수궁관,"1호선, 2호선",시청역,서울 중구 세종대로 99,37.56585 ,126.97377 
미술관,국립현대미술관 서울,3호선,안국역,서울 종로구 삼청로 30,37.57945 ,126.98036 
박물관/기념관,국민대학교 박물관,4호선,길음역,서울 성북구 정릉동  정릉로 77,37.61270 ,126.99359 
미술관,국제갤러리,3호선,안국역,서울 종로구 소격동 59-1,37.58066 ,126.98059 
박물관/기념관,근현대사기념관 ,9호선,4.19민주묘지역,서울 강북구 4.19로 114,37.64349 ,127.00275 
공연장,금나래아트홀,1호선,금천구청역,서울 금천구 시흥대로73길 70,37.45661 ,126.89576 
공연장,금빛공원 야외공연장,1호선,금천구청역,서울 금천구 독산동 371-2,,
기타,금빛휘트니스센터,1호선,금천구청역,서울 금천구 시흥동 금하로 668,,
박물관/기념관,금성당샤머니즘박물관,3호선,구파발역,서울 은평구 진관2로 57-23,37.63510 ,126.92543 
문화예술회관,금천마을활력소 어울샘,2호선,구로디지털단지역,서울 금천구 탑골로 22,,
미술관,금천예술공장,1호선,독산역,서울 금천구 범안로15길 57,37.46887 ,126.89178 
미술관,금호미술관,3호선,안국역,서울 종로구 사간동 78,37.57755 ,126.97988 
공연장,금호아트홀,2호선,신촌역,서울 종로구 신문로1가  새문안로 75,,
박물관/기념관,기생충박물관,9호선,가양역,서울 강서구 화곡로 333,37.55359 ,126.85073 
공연장,김동수플레이하우스,4호선,혜화역,서울 종로구 연건동 178-1,37.57654 ,127.00256 
미술관,김영섭사진화랑,3호선,안국역,서울 종로구 관훈동 169-2,,
미술관,김영옥 미술관,5호선,광화문역,서울 종로구 창의문로10길 11,37.59393 ,126.96419 
유적지,김유신장군동상,4호선,회현역,서울 중구 남창동 204-2,,
공연/전시장,김중업 건축문화의집,6호선,상월곡역,서울 성북구 장위로21나길 11,37.61500 ,127.04405 
박물관/기념관,김치박물관,9호선,봉은사역,서울 강남구 삼성동 159,37.57359 ,126.98488 
기타,꼬스트홀,"2호선, 3호선",을지로3가역,서울 중구 명동2가 1-1,37.56313 ,126.98679 
문화예술회관,나루아트센터,"2호선, 7호선",건대입구역,서울 광진구 자양동 227-344,37.53739 ,127.07053 
유적지,낙성대,2호선,낙성대역,서울 관악구 낙성대로 77,37.47112 ,126.95998 
유적지,남산골한옥마을,"3호선, 4호선",충무로역,서울 중구 퇴계로 34길 28,37.55935 ,126.99449 
기타,남산공원 호현당,4호선,회현역,서울 중구 회현동1가 산 1-44,,
유적지,남산봉수대,4호선,명동역,서울 중구 예장동,37.55205 ,126.98747 
공연장,남산예술센터드라마센터,4호선,명동역,서울 중구 예장동 8-19,37.55897 ,126.98845 
미술관,남산전시관,6호선,한강진역,서울 용산구 이태원동 258-148,37.54144 ,126.99702 
기타,내곡느티나무쉼터,신분당선선,양재시민의숲역,서울 서초구 염곡말길 9,,
기타,노들섬 복합문화공간,9호선,노들역,서울 용산구 양녕로 445,37.51801 ,126.95750 
기타,노원구민체육센터,7호선,중계역,서울 노원구 중계동 507-3,,
문화예술회관,노원문화예술회관,7호선,하계역,서울 노원구 중계로 181,37.65027 ,127.08025 
공연장,노원어린이극장,"4호선, 7호선",노원역,서울 노원구 노해로 502,37.65453 ,127.06365 
미술관,노화랑,3호선,안국역,서울 종로구 관훈동 103,37.57486 ,126.98407 
박물관/기념관,농업박물관,5호선,서대문역,서울 중구 충정로1가 100-707,37.56643 ,126.96811 
유적지,다산정약용동상,"1호선, 4호선",서울역,서울 용산구 소월로 108,,
공연장,단막극장,4호선,혜화역,서울 종로구 동숭동 12-6,37.58329 ,127.00457 
공연장,단성사,"1호선, 3호선, 5호선",종로3가역,서울 종로구 묘동 56,,
유적지,대동문,4호선,수유역,서울 강북구 4.19로28길 19-9,37.64031 ,126.98608 
미술관,대림미술관,3호선,경복궁역,서울 종로구 통의동 35-1,37.57753 ,126.97337 
미술관,대안공간 풀,3호선,경복궁역,서울 종로구 구기동 56-13,37.60642 ,126.95919 
공연장,대원 컨텐츠 라이브,"1호선, 경의선",용산역,서울 용산구 한강대로23길 55,37.52877 ,126.96329 
기타,대진체육관,3호선,대청역,서울 강남구 개포동 13-1,,
공연장,대학로 열린 극장,4호선,혜화역,서울 종로구 명륜2가 21-18,37.58371 ,127.00034 
공연장,대학로극장,4호선,혜화역,서울 종로구 연건동 178-1,37.57657 ,127.00252 
기타,대학로연습실,4호선,혜화역,서울 종로구 동숭길117,,
공연장,대한극장,"3호선, 4호선",충무로역,서울 중구 충무로4가 125,37.56109 ,126.99531 
박물관/기념관,덕성여자대학교 박물관,우이신설경전철,솔밭공원역,서울 도봉구 쌍문동 419,37.65324 ,127.01626 
유적지,덕수궁,"1호선, 2호선",시청역,서울 중구 세종대로 99,37.56582 ,126.97515 
미술관,덕원갤러리,"1호선, 3호선, 5호선",종로3가역,서울 종로구 인사동 15길 24,,
공연/전시장,도봉구민청 1층 갤러리,1호선,방학역,서울 도봉구 마들로 656,37.66867 ,127.04705 
문화예술회관,도봉문화재단,"1호선, 4호선",창동역,서울 도봉구 노해로63길 43,37.65260 ,127.04407 
박물관/기념관,도산안창호 기념관,수인분당선,압구정로데오역,서울 강남구 신사동 649-9,37.52390 ,127.03550 
공연장,도원극장,3호선,녹번역,서울 은평구 녹번동 79-2,,
유적지,도편수이승업가옥,"3호선, 4호선",충무로역,서울 중구 퇴계로 34길 28,37.55885 ,126.99410 
유적지,독립문,3호선,독립문역,서울 서대문구 현저동 941,37.57243 ,126.95953 
박물관/기념관,돈의문박물관마을,5호선,서대문역,서울 종로구 송월길 14-3,37.56880 ,126.96850 
문화예술회관,돈화문 서울무형문화재교육전시장,3호선,안국역,서울 종로구 율곡로 10길 13,37.57692 ,126.99110 
박물관/기념관,동국대학교 박물관,3호선,동대입구역,서울 중구 필동3가 26,37.55807 ,127.00246 
기타,동대문구민체육센터,5호선,장한평역,서울 동대문구 장안벚꽃로 67,,
공연/전시장,동대문구청 아트갤러리,2호선,용두역,서울 동대문구 용두동 39-9,37.57442 ,127.03974 
기타,동대문구체육관,1호선,제기역,서울 동대문구 답십리동 2-294,,
문화예술회관,동대문구문화회관,5호선,답십리역,서울 동대문구 답십리로 210-9,37.57178 ,127.06377 
미술관,동덕아트갤러리,3호선,안국역,서울 종로구 관훈동 151-4,37.57498 ,126.98327 
박물관/기념관,동덕여자대학교 박물관,6호선,월곡역,서울 성북구 하월곡동 23-1,37.60657 ,127.04276 
공연장,동방예술극장,4호선,혜화역,서울 마포구 노고산동 33-22,,
미술관,동산방화랑,1호선,종각역,서울 종로구 견지동 93,37.57292 ,126.98333 
미술관,동서화랑,4호선,명동역,서울 종로구 관훈동 196-3,37.57427 ,126.98486 
공연장,동숭무대,4호선,혜화역,서울 종로구 혜화로 35,37.58648 ,127.00049 
공연장,동숭아트센터,4호선,혜화역,서울 종로구 동숭동 1-5,37.58373 ,127.00368 
문화예술회관,동작문화재단,9호선,흑석역,서울 동작구 흑석로 93-1,37.50746 ,126.95987 
미술관,동작아트갤러리,7호선,보라매역,서울 동작구 보라매로5길 28-1,37.49387 ,126.92314 
미술관,동호갤러리,"1호선, 3호선, 5호선",종로3가역,서울 종로구 관훈동 197-18,,
미술관,두산갤러리,1호선,종로5가역,서울 종로구 종로33길 15,37.57179 ,127.00098 
공연장,두산아트센터,1호선,종로5가역,서울 종로구 연지동 270,37.57171 ,127.00127 
박물관/기념관,둘리뮤지엄,4호선,쌍문역,서울 도봉구 쌍문동 산 250,37.65231 ,127.02775 
문화원,드플로허,6호선,이태원역,서울 용산구 대사관로5길 34,,
미술관,디뮤지엄,수인분당선,서울숲역,서울 성동구 왕십리로 83-21,37.54438 ,127.04375 
미술관,디지털 파빌리온,경의선,수색역,서울 마포구 상암동 1605,37.57914 ,126.89029 
공연장,떡박물관,"1호선, 3호선, 5호선",종로3가역,서울 종로구 와룡동 164-2,37.57490 ,126.99062 
기타,떼아뜨르 秋,"2호선, 경의선, 공항철도",홍대입구역,서울 마포구 서교동 358-116,,
기타,뚝섬전망문화콤플렉스,7호선,뚝섬유원지역,서울 광진구 자양동 97-5,,
기타,롯데월드,"2호선, 8호선",잠실역,서울 송파구 잠실동  올림픽로 240,,
문화원,롯데월드 아이스링크,"2호선, 8호선",잠실역,서울 송파구 올림픽로 240,,
공연장,롯데월드 야외공연장,"2호선, 8호선",잠실역,서울 송파구 잠실동 47,,
미술관,롯데월드 화랑,"2호선, 8호선",잠실역,서울 송파구 잠실동 40-1,,
공연장,롯데콘서트홀,"2호선, 8호선",잠실역,서울 송파구 올림픽로 300,37.51364 ,127.10397 
미술관,롯데화랑,2호선,을지로입구역,서울 중구 소공동 1,37.56535 ,126.98099 
문화예술회관,리틀엔젤스예술회관,5호선,아차산역,서울 광진구 능동로36길 25,37.55084 ,127.08792 
공연장,마루아트홀,4호선,혜화역,서울 종로구 대학로8가길 30,37.58229 ,127.00255 
문화예술회관,마포아트센터,6호선,대흥역,서울 마포구 대흥로20길 28,37.54977 ,126.94558 
기타,맛동,"3호선, 6호선",불광역,서울 은평구 녹번동 5-29,,
유적지,망묘루,"1호선, 3호선, 5호선",종로3가역,서울 종로구 종로 157,37.57283 ,126.99482 
기타,메이커시티 세운,"1호선, 3호선, 5호선",종로3가역,서울 종로구 종로3가 143-1,37.57014 ,126.99519 
공연장,명동난타극장,2호선,을지로입구역,서울 중구 명동길 26,37.56346 ,126.98371 
공연장,명동예술극장,4호선,명동역,서울 중구 명동길 35,37.56403 ,126.98422 
공연장,명보극장,"2호선, 3호선",을지로3가역,서울 중구 초동 18-5,37.56472 ,126.99320 
공연장,모차르트콘서트홀,2호선,서초역,서울 서초구 서초동 1515-3,37.48641 ,127.00452 
문화원,목동아이스링크,5호선,오목교역,서울 양천구 목동  안양천로 939,,
문화원,목동운동장,5호선,오목교역,서울 양천구 목동 914,,
박물관/기념관,목인박물관,3호선,경복궁역,서울 종로구 견지동 83,,
박물관/기념관,몽촌역사관,"5호선, 9호선",올림픽공원역,서울 송파구 올림픽로 424,37.52393 ,127.12431 
유적지,몽촌토성,8호선,강동구청역,서울 송파구 올림픽로 424,37.52193 ,127.12284 
문화원,무계원,3호선,경복궁역,서울 종로구 부암동 315-3,37.59191 ,126.96343 
문화예술회관,문래예술공장,1호선,영등포역,서울 영등포구 경인로88길 5-4,37.51321 ,126.90015 
미술관,문예진흥원 아르코미술관,4호선,혜화역,서울 종로구 동숭동 1-130,37.58044 ,127.00320 
공연/전시장,문학의집서울,4호선,명동역,서울 중구 퇴계로26길 65,37.55821 ,126.98933 
공연/전시장,문화공간 이육사,6호선,고려대역,서울 성북구 종암로21가길 36-1,37.54456 ,126.95948 
유적지,문화류씨묘역,"3호선, 5호선",오금역,서울 송파구 오금동,37.50189 ,127.13057 
기타,문화비축기지,"6호선, 공항철도, 경의선",디지털미디어시티역,서울 마포구 성산동 661 증산로 87,37.57102 ,126.89413 
공연장,문화일보홀,5호선,서대문역,서울 중구 충정로1가 68,,
공연장,문화정원아트홀,1호선,독산역,서울 금천구 독산동 296-9,37.47181 ,126.89587 
공연장,민속극장풍류,"9호선, 수인분당선",선정릉역,서울 강남구 삼성동 112-2,37.51021 ,127.04463 
공연장,밀알학교 세라믹 팔레스홀,3호선,일원역,서울 강남구 일원동 713,37.48549 ,127.08193 
공연장,반포심산아트홀,9호선,구반포역,서울 서초구 반포동 114-3,37.49885 ,126.99050 
기타,밝은미소운동본부,3호선,일원역,서울 강남구 일원로 121,,
공연장,방송회관 코바코홀,5호선,오목교역,서울 양천구 목동동로 233,,
유적지,서울방이동고분군,9호선,송파나루역,서울 송파구 방이동,37.50781 ,127.11879 
유적지,백련사,4호선,수유역,서울 강북구 수유동 산 17-1,37.64665 ,126.99958 
유적지,백범광장,4호선,회현역,서울 중구 회현동1가 100-115,37.55488 ,126.97923 
박물관/기념관,백범기념관,"6호선, 경의선",효창공원앞역,서울 용산구 효창동 255,37.55488 ,126.97923 
유적지,백범김구기념관,"경의선, 6호선",효창공원앞역,서울 용산구 임정로 26,37.54458 ,126.95948 
공연장,백암아트홀,2호선,삼성역,서울 강남구 테헤란로113길 7,37.51047 ,127.06593 
박물관/기념관,보나장신구 박물관,1호선,종각역,서울 종로구 관훈동 192-10 ,37.57359 ,126.98450 
유적지,보신각,1호선,종각역,서울 종로구 종로 54,37.56983 ,126.98371 
공연장,봄날아트홀,4호선,혜화역,서울 종로구 동숭동 1-153,37.57997 ,27.00425 
공연장,부암아트홀,3호선,경복궁역,서울 종로구 부암동 208-71,37.59577 ,126.96408 
박물관/기념관,부엉이 박물관,3호선,안국역,서울 종로구 삼청동 27-21,37.58706 ,126.98291 
기타,북서울꿈의숲,4호선,미아사거리역,서울 강북구 월계로 173,37.62145 ,127.04063 
문화예술회관,북촌 서울무형문화재 교육전시장,3호선,안국역,서울 종로구 북촌로 20-13,,
문화예술회관,북촌문화센터,3호선,안국역,서울 종로구 계동길 37,37.57905 ,126.98642 
미술관,북촌박물관,3호선,안국역,서울 종로구 가회동 170-4,37.58028 ,126.98477 
공연장,블루스퀘어(Blue Square),6호선,한강진역,서울 용산구 한남동 727-56,37.54090 ,127.00245 
공연장,빈집프로젝트,2호선,구로디지털단지역,서울 금천구 독산로96길 6,37.47489 ,126.90387 
문화예술회관,사각사각 플레이스,2호선,잠실새내역,서울 송파구 한가람로 65,37.51770 ,127.08199 
문화예술회관,사당문화회관,7호선,남성역,서울 동작구 사당동 248-6,37.48486 ,126.96979 
미술관,사비나미술관,"3호선, 6호선",연신내역,서울 은평구 진관1로 93,37.63017 ,126.92936 
박물관/기념관,사육신역사관,9호선,노들역,서울 동작구 노량진로 191,37.51404 ,126.94857 
공연/전시장,삼각산시민청,우이신설경전철,솦밭공원역,서울 강북구 삼양로 595,37.65609 ,127.01339 
유적지,삼봉정도전시비,"1호선, 3호선, 5호선",종로3가역,서울 종로구 인의동 123,37.57147 ,126.99618 
미술관,삼성미술관 Leeum,6호선,한강진역,서울 용산구 한남동 747-18,37.53842 ,126.99927 
박물관/기념관,삼성출판박물관,3호선,경복궁역,서울 종로구 구기동 126-4,,
공연장,삼일로창고극장,4호선,명동역,서울 중구 삼일대로9길 12,,
유적지,삼전도비,"2호선, 8호선",잠실역,서울 송파구 송파나루길 256,37.51076 ,127.10150 
기타,삼청각,4호선,한성대입구역,서울 성북구 성북동 330-115,,
미술관,상계예술마당,"4호선, 7호선",노원역,서울 노원구 상계로10길 41-7,37.65577 ,127.06836 
박물관/기념관,상명대학교 박물관,3호선,안국역,서울 종로구 홍지동 110-743,,
공연장,상명아트센터,3호선,경복궁역,서울 종로구 홍지동 7-1,37.60305 ,126.95638 
공연장,상봉시네마,"7호선, 경의선, 경춘선",상봉역,서울 중랑구 상봉동 92-2,37.59684 ,127.08895 
공연장,샘터 파랑새 극장,4호선,혜화역,서울 종로구 동숭동 1-115,,
박물관/기념관,생명과학박물관,5호선,오목교역,서울 양천구 목동 405-207,37.52401 ,126.87194 
박물관/기념관,샬트르성바오로수녀회 역사박물관,"2호선, 3호선",을지로3가역,서울 중구 명동2가 1-6,,
박물관/기념관,서강대학교 박물관,경의선선,서강대역,서울 마포구 신수동 1-1,,
문화예술회관,서교예술실험센터,"2호선, 경의선, 공항철도",홍대입구역,서울 마포구 잔다리로6길 33,,
문화예술회관,서대문문화회관,3호선,홍제역,서울 서대문구 홍은동 26-155,,
박물관/기념관,서대문자연사박물관,2호선,신촌역,서울 서대문구 연희로32길 51,,
박물관/기념관,서대문형무소역사관,3호선,독립문역,서울 서대문구 통일로 251,37.57429 ,126.95607 
미술관,서리풀청년아트갤러리,3호선,남부터미널역,서울 서초구 남부순환로323길 1,37.48099 ,127.01334 
문화예술회관,서서울예술교육센터,"2호선, 5호선",까치산역,서울 양천구 남부순환로64길 2,37.52835 ,126.83218 
공연장,서울 아트 시네마,"1호선, 3호선, 5호선",종로3가역,서울 종로구 낙원동 삼일대로 428,,
기타,서울 애니메이션 센터,4호선,명동역,서울 중구 소공로 48,37.55980 ,126.98305 
박물관/기념관,서울공예박물관,3호선,안국역,서울 종로구 율곡로3길 4,37.57675 ,126.98337 
문화예술회관,서울교육문화회관,신분당선,양재시민의숲역,서울 서초구 바우뫼로12길 70,,
공연장,서울극장,"1호선, 3호선, 5호선",종로3가역,서울 종로구 관수동 돈화문로 13,,
기타,서울기록원,"3호선, 6호선",불광역,서울 은평구 통일로62길 7,,
공연장,서울남산국악당,"3호선, 4호선",충무로역,서울 중구 필동2가 84-1,37.55853 ,126.99353 
미술관,서울대학교 미술관,2호선,서울대입구역,서울 관악구 신림동 56-1,37.46656 ,126.94965 
박물관/기념관,서울대학교 치과대학 치의학 박물관,4호선,혜화역,서울 종로구 연건동 110-749,,
공연/전시장,서울도시건축전시관,"1호선, 2호선",시청역,서울 중구 세종대로 119,37.56690 ,126.97665 
공연장,서울돈화문국악당,3호선,안국역,서울 종로구 와룡동 12-2,,
기타,서울로 7017,경의선,서울역,서울 중구 만리동1가 1,,
공연/전시장,서울로미디어캔버스,"1호선, 4호선, 공항철도",서울역,서울 중구 만리재로 215,,
기타,서울무용센터,6호선,새절역,서울 서대문구 명지2길 14,,
문화예술회관,서울문화재단,2호선,용두역,서울 동대문구 청계천로 517,,
박물관/기념관,서울상상나라,7호선,어린이대공원역,서울 광진구 능동로 216,37.55046 ,127.07749 
기타,서울새활용플라자,5호선,장한평역,서울 성동구 자동차시장길49,37.55859 ,127.05824 
기타,서울생각마루,7호선,뚝섬유원지역,서울 광진구 강변북로 2202,,
문화예술회관,서울생활문화센터 낙원,"1호선, 3호선, 5호선",종로3가역,서울 종로구 삼일대로 428,37.57202 ,126.98758 
문화예술회관,서울생활문화센터 서교,"2호선, 6호선",합정역,서울 마포구 양화로 72,37.55094 ,126.91666 
문화예술회관,서울생활문화센터 체부,3호선,경복궁역,서울 종로구 자하문로1나길 3-2,37.57668 ,126.97149 
박물관/기념관,서울생활사박물관,7호선,태릉입구역,서울 노원구 동일로 174길 27,37.61969 ,127.07671 
공연장,서울숲공원 야외공연장,수인분당선,서울숲역,서울 성동구 성수동1가 685-306,,
미술관,서울시립 북서울미술관,7호선,하계역,서울 노원구 동일로 1238,37.64082 ,127.06676 
박물관/기념관,서울시립과학관,7호선,하계역,서울 노원구 한글비석로 160,37.64195 ,127.07761 
공연장,서울시립대학교 박물관,"경의선, 수인분당선, 경춘선",청량리역,서울 동대문구 회기동 90,,
미술관,서울혁신파크,"3호선, 6호선",불광역,서울 은평구 통일로 684,,
미술관,서울시립미술관,"1호선, 2호선",시청역,서울 중구 서소문동 덕수궁길 61,37.56408 ,126.97382 
미술관,서울역사박물관,5호선,서대문역,서울 종로구 신문로2가 2-1,37.57051 ,126.97057 
미술관,서울시립남서울미술관,"2호선, 4호선",사당역,서울 관악구 남부순환로 2076,37.47617 ,126.97960 
공연/전시장,서울시청 하늘광장 갤러리,"1호선, 2호선",시청역,서울 중구 세종대로 110,,
기타,서울식물원,"9호선, 공항철도",마곡나루역,서울 강서구 마곡동로 161,37.56628 ,126.82973 
미술관,서울아트센터,"4호선, 6호선",삼각지역,서울 종로구 공평동  우정국로2길 32,,
공연장,서울악스,5호선,광나루역,서울 광진구 구천면로 20,,
박물관/기념관,서울암사동유적,8호선,암사역,서울 강동구 올림픽로 875,,
박물관/기념관,서울약령시한의약박물관,1호선,제기동역,서울 동대문구 용두동 787,37.58060 ,127.03765 
박물관/기념관,서울역사박물관,5호선,광화문역,서울 종로구 새문안로 55,,
기타,서울역사편찬원,"5호선, 9호선",올림픽공원역,서울 송파구 방이동  88-3,,
공연/전시장,서울연극센터,4호선,혜화역,서울 종로구 창경궁로 253-1,37.58337 ,127.00132 
공연장,서울예술치유허브,3호선,고려대역,서울 성북구 종암동 28-358,,
박물관/기념관,서울올림픽기념관,8호선,몽촌토성역,서울 송파구 방이동 88,37.52038 ,127.11550 
박물관/기념관,서울우리소리박물관,3호선,안국역,서울 종로구 율곡로 96,37.57715 ,126.98976 
문화원,서울월드컵경기장,6호선,월드컵경기장역,서울 마포구 성산동 526-3,,
기타,서울자유시민대학,5호선,서대문역,서울 종로구 신문로2가 1-43,,
기타,서울창작공간,2호선,용두역,서울 동대문구 용두동 255-67,,
기타,서울책보고,2호선,잠실나루역,서울 송파구 신천동 14,37.52197 ,127.10376 
박물관/기념관,서울풍물시장,"1호선, 2호선, 우이신설경전철",신설동역,서울 동대문구 천호대로4길 21,37.57270 ,127.02551 
박물관/기념관,서울하수도과학관,5호선,장한평역,서울 성동구 용답동 250-7,37.55797 ,127.05784 
박물관/기념관,서울함공원,6호선,망원역,서울 마포구 마포나루길 407,,
미술관,선갤러리,"1호선, 3호선, 5호선",종로3가역,서울 종로구 인사동 184 5길 8,,
유적지,선정릉,"2호선, 수인분당선",선릉역,서울 강남구 선릉로 100길 1,37.50734 ,127.04715 
미술관,성곡미술관,3호선,경복궁역,서울 종로구 신문로2가 1-101,37.57313 ,126.96976 
미술관,성북구립 최만린미술관,우이신설경전철,북한산보국문역,서울 성북구 솔샘로7길 23,,
박물관/기념관,성북선잠박물관,4호선,한성대입구역,서울 성북구 성북로 96,,
공연장,성수아트홀,2호선,뚝섬역,서울 성동구 뚝섬로1길 43,37.54542 ,127.04695 
공연장,성암아트홀,"9호선, 수인분당선",선정릉역,서울 강남구 논현동 268-16,37.51108 ,127.04299 
박물관/기념관,세계골프역사박물관,2호선,삼성역,서울 강남구 테헤란로 528,,
박물관/기념관,세계장신구 박물관,3호선,안국역,서울 종로구 화동 75-3,,
기타,세빛섬,9호선,신반포역,서울 서초구 올림픽대로 2085-14,,
공연장,세실극장,"1호선, 2호선",시청역,서울 중구 정동 3-7,,
공연장,세실아트홀,3호선,압구정역,서울 강남구 신사동 616-7,,
박물관/기념관,세종대왕기념관,6호선,고려대역,서울 대문구 청량리동 1-157 ,37.59081 ,127.04353 
공연장,세종대학교 대양홀,7호선,어린이대공원역,서울 광진구 군자동 98,,
박물관/기념관,세종대학교 박물관,7호선,어린이대공원역,서울 광진구 군자동 98,,
공연/전시장,세종마을상촌재,3호선,경복궁역,서울 종로구 자하문로17길 12-11,37.58186 ,126.96951 
공연장,세종문화회관,5호선,광화문역,서울 종로구 세종대로 175,37.57255 ,126.97564 
미술관,세컨드에비뉴 갤러리,"3호선, 4호선",충무로역,서울 중구 필동로8길 22,,
미술관,셀린박 갤러리,3호선,압구정역,서울 강남구 압구정로32길 30,,
미술관,소마미술관,9호선,한성백제역,서울 송파구 방이동 올림픽로 424,37.51712 ,127.11823 
유적지,소악루,9호선,양천향교역,서울 강서구 가양동,37.57555 ,126.84083 
공연장,소월아트홀,"2호선, 5호선, 수인분당선, 경의선",왕십리역,서울 성동구 행당동 142-16,37.55930 ,127.03598 
미술관,소호 아트 갤러리,3호선,경복궁역,서울 종로구 필운동 90-1,,
공연장,손기정문화체육센터,"2호선, 5호선",충정로역,서울 중구 만리동2가 손기정로 101,,
유적지,송시열초상,4호선,한성대입구역,서울 종로구 명륜1가,,
문화예술회관,송파구체육문화회관,5호선,거여역,서울 송파구 거여동 289,,
박물관/기념관,쇳대박물관,"1호선, 4호선",동대문역,서울 종로구 동숭동 187-8,37.57979 ,127.00459 
박물관/기념관,수림아트센터,6호선,고려대역,서울 동대문구 홍릉로 118,37.59071 ,127.04272 
박물관/기념관,숙명여자대학교 박물관,4호선,숙대입구역,서울 용산구 청파동2가 52,,
박물관/기념관,숙명여자대학교 정영양자수박물관,"6호선, 경의선",효창공원앞역,서울 용산구 효창동 52,,
유적지,숭례문,"1호선, 4호선, 공항철도",서울역,서울 중구 세종대로 40,37.55995 ,126.97530 
유적지,영휘원과 숭인원,1호선,청량리역,서울 동대문구 청량리동 204-37,37.58860 ,127.04359 
박물관/기념관,쉼박물관,3호선,경복궁역,서울 종로구 홍지동 36-20,,
미술관,슈페리어갤러리,2호선,삼성역,서울 강남구 테헤란로 528,37.50818 ,127.06191 
미술관,스튜디오 콘크리트,6호선,한강진역,서울 용산구 한남대로 162,37.54244 ,127.00249 
미술관,스페이스 신선,6호선,한강진역,서울 용산구 이태원로 256,37.53737 ,127.00129 
미술관,스페이스 씨,3호선,압구정역,서울 강남구 언주로 827,,
미술관,스페이스 이수 ,9호선,신반포역,서울 서초구 반포동 사평대로 84,,
기타,시립용산노인종합복지관,경의선,한남역,서울 용산구 독서당로11길 16,,
공연/전시장,시민청,"1호선, 2호선",시청역,서울 중구 세종대로110,37.56672 ,126.97817 
기타,신당창작아케이드,"2호선, 6호선",신당역,서울 중구 마장로 87,,
공연장,신도림 오페라하우스,"1호선, 2호선",신도림역,서울 구로구 구로동 3-39,37.50815 ,126.89092 
공연/전시장,신도림예술공간 고리,"1호선, 2호선",신도림역,서울 구로구 구로동 3-33,37.50785 ,126.89106 
기타,신림체육센터,2호선,신대방역,서울 관악구 신림동  난곡로64가길 19,,
박물관/기념관,신문박물관,5호선,광화문역,서울 종로구 세종로 139,37.56987 ,126.97765 
공연장,신월문화체육센터,2호선,신정네거리역,서울 양천구 신월동  지양로 37,,
공연장,신촌문화발전소,경의선,신촌역,서울 서대문구 연세로2나길 57,,
미술관,신한갤러리,2호선,역삼역,서울 강남구 역삼로 251,37.49858 ,127.04398 
공연장,아리랑 씨네센터,우이신설경전철,정릉역,서울 성북구 돈암동 538-98,37.60029 ,127.01391 
미술관,아웃사이트(out_sight),4호선,혜화역,서울 종로구 창경궁로35가길 12,37.58726 ,127.00135 
공연장,아이들극장,4호선,혜화역,서울 종로구 성균관로 91,,
공연장,아이러브아트센터,3호선,압구정역,서울 강남구 압구정로32길 30,37.52582 ,127.02978 
유적지,아차산봉수대터,경춘선,망우역,서울 중랑구 묵동 산46-19,37.60877 ,127.08663 
미술관,아트선재센터,3호선,안국역,서울 종로구 소격동 144-2,37.57953 ,126.98197 
미술관,아트센터 나비,1호선,종각역,서울 종로구 서린동  종로 26,37.56981 ,126.98028 
공연/전시장,아트숨비센터 ,6호선,응암역,서울 은평구 은평로8길 9,37.59936 ,126.92071 
문화예술회관,아트하우스 모모,경의선,신촌역,서울 서대문구 이화여대길 52,,
공연장,아티스탄홀,4호선,혜화역,서울 종로구 대학로 132,,
박물관/기념관,안중근의사기념관,4호선,회현역,서울 중구 남대문로5가 471,,
유적지,안중근의사동상,4호선,회현역,서울 용산구 후암동 30-80,37.55334 ,126.98061 
유적지,암사동선사주거지,8호선,암사역,서울 강동구 올림픽로 875,37.56052 ,127.13015 
공연장,양천구 해누리타운 아트홀,2호선,양천구청역,서울 양천구 목동동로 85,,
기타,양천구민체육센터,2호선,양천구청역,서울 양천구 신정동 322-10,,
문화예술회관,양천문화재단,2호선,양천구청역,서울 양천구 목동동로 81,,
문화예술회관,양천문화회관,2호선,양천구청역,서울 양천구 신정동 322,,
미술관,어반아트,6호선,이태원역,서울 강남구 신사동 545-11,,
공연/전시장,언더스탠드에비뉴,수인분당선,서울숲역,서울 성동구 성수동1가 685-704,,
유적지,여계묘역,1호선,개봉역,서울 구로구 고척동 산6-3,37.50731 ,126.85617 
공연장,여의도한강공원 물빛무대,5호선,여의나루역,서울 영등포구 여의동로 330,,
유적지,연산군묘,우이신설경전철,북한산우이역,서울 도봉구 방학동,37.66144 ,127.02257 
박물관/기념관,연세대학교 중앙박물관,2호선,신촌역,서울 서대문구 신촌동 134,,
공연장,연우소극장,4호선,혜화역,서울 종로구 혜화동  창경궁로35길 21,,
기타,연희문학창작촌,경의선,신촌역,서울 서대문구 증가로2길 6-7,37.57212 ,126.93131 
문화예술회관,영등포아트홀,"2호선, 5호선",영등포구청역,서울 영등포구 당산동3가,37.52607 ,126.90009 
공연장,영산아트홀,9호선,국회의사당역,서울 영등포구 여의도동 12,37.52904 ,126.92427 
공연장,영산양재홀,"3호선, 신분당선",양재역,서울 서초구 양재동 20-4,37.48053 ,127.03841 
박물관/기념관,영인문학관,3호선,경복궁역,서울 종로구 평창30길 81,,
유적지,영휘원,1호선,청량리역,서울 동대문구 청량리동 204-2,,
공연장,예빛섬,"3호선, 9호선",고속터미널역,서울 서초구 올림픽대로 683,,
미술관,예술의 기쁨,"6호선, 경의선",효창공원앞역,서울 용산구 효창원로70길 35,,
공연장,예술의전당,3호선,남부터미널역,서울 서초구 남부순환로 2406,37.47901 ,127.01163 
공연장,예스24 라이브홀,5호선,광나루역,서울 광진구 광장동 319-33,37.54580 ,127.10790 
문화원,예지원,3호선,동대입구역,서울 중구 장충단로 72,37.55259 ,127.00307 
미술관,예화랑,3호선,압구정역,서울 강남구 신사동 532-8,,
유적지,옛홍릉터,6호선,고려대역,서울 동대문구 회기로 57,37.59313 ,127.04366 
공연장,오류아트홀,1호선,오류동역,서울 구로구 경인로20가길 38,,
유적지,오위장김춘영가옥,"3호선, 4호선",충무로역,서울 중구 퇴계로 34길 28,37.56035 ,126.99450 
공연장,오유아트홀,3호선,매봉역,서울 강남구 남부순환로378길 34-9,,
기타,온조대왕문화체육관,5호선,고덕역,서울 강동구 고덕동 296,,
공연/전시장,올리비아박 갤러리,수인분당선,압구정로데오역,서울 강남구 도산대로81길 40,,
유적지,올림픽공원세계평화의문,8호선,몽촌토성역,서울 송파구 위례성대로 51,37.51828 ,127.11534 
기타,올림픽기념국민생활관,4호선,혜화역,서울 종로구 성균관로 91,,
문화원,올림픽스포츠센터,"5호선, 9호선",올림픽공원역,서울 송파구 방이동 89-12,,
기타,옹기테마공원 체험장,6호선,봉화산역,서울 중랑구 신내로21길 116,,
기타,용산 꿈나무 종합타운,"6호선, 경의선",효창공원앞역,서울 용산구 백범로 329,,
공연장,용산 더줌아트센터,경의선,한남역,서울 용산구 독서당로 111,37.53579 ,127.00702 
공연장,용산 동자아트홀,"1호선, 4호선, 공항철도",서울역,서울 용산구 한강대로 372,37.55161 ,126.97282 
미술관,용산 아트스페이스 루,4호선,신용산역,서울 용산구 한강대로44길 5,,
공연장,용산 일신홀,6호선,한강진역,서울 용산구 한남대로 98,37.53720 ,127.00546 
공연/전시장,용산공예관,6호선,한강진역,서울 용산구 이태원로 274,37.53898 ,127.00206 
박물관/기념관,용산공원 갤러리,"4호선, 6호선",삼각지역,서울 용산구 한강로1가 1-1,,
공연장,용산꿈나무종합타운,"6호선, 경의선",효창공원앞역,서울 용산구 백범로 329,,
박물관/기념관,용산도시기억전시관,4호선,신용산역,서울 한강로3가 64-1,37.52647 ,126.96659 
기타,용산문화체육센터,"6호선, 경의선",효창공원앞역,서울 용산구 문배동 19-2,,
문화예술회관,용산아트홀,6호선,녹사평역,서울 용산구 이태원동,37.53275 ,126.99048 
공연장,우란2경,2호선,성수역,서울 성동구 연무장7길 11,37.54384 ,127.05432 
공연장,우리금융아트홀,"5호선, 9호선",올림픽공원역,서울 송파구 올림픽로 424,37.51670 ,127.12498 
유적지,운현궁,3호선,안국역,서울 종로구 삼일대로 464,37.57606 ,126.98705 
유적지,월계동각심재,1호선,월계역,서울 노원구 월계동,37.63405 ,127.05077 
유적지,유관순동상,6호선,버티고개역,서울 중구 장충동2가,37.55506 ,127.00327 
공연장,유니버설아트센터,5호선,아차산역,서울 광진구 천호대로 664,37.55083 ,127.08794 
공연장,유니플렉스,4호선,혜화역,서울 종로구 대학로12길 64,37.58117 ,127.00369 
공연/전시장,유담헌,3호선,안국역,서울 종로구 북촌로 76,37.58358 ,126.98537 
미술관,유리지공예관,4호선,선바위역,서울 서초구 중앙로 555,37.45778 ,127.01233 
박물관/기념관,육군사관학교 박물관,"6호선, 경춘선",신내역,서울 노원구 공릉동 77,37.62292 ,127.10062 
박물관/기념관,윤동주문학관,3호선,경복궁역,서울 종로구 창의문로 119,37.59209 ,126.96712 
공연장,은평문화예술회관,6호선,역촌역,서울 은평구 녹번로 16,37.60370 ,126.92787 
박물관/기념관,은평역사한옥박물관,3호선,구파발역,서울 은평구 연서로50길 8,37.64048 ,126.93812 
유적지,을지문덕장군상,5호선,아차산역,서울 광진구 능동,37.55161 ,127.08844 
유적지,의릉,6호선,상월곡역,서울 성북구 화랑로32길,37.60384 ,127.05754 
기타,이건하우스,"2호선, 경의선, 공항철도",홍대입구역,서울 마포구 동교로 161,37.55594 ,126.91964 
기타,이문체육문화센터,1호선,신이문역,서울 동대문구 이문동 189,,
박물관/기념관,이화여고 100주년기념관,5호선,서대문역,서울 중구 정동길 26,37.56626 ,126.97072 
박물관/기념관,이화여대박물관,경의선,신촌역,서울 서대문구 대현동 11-1,37.56035 ,126.94471 
박물관/기념관,이화여자대학교 자연사박물관,경의선,신촌역,서울 서대문구 대현동 11-1,37.56057 ,126.94820 
유적지,이화장,4호선,혜화역,서울 종로구 이화장1길 32,37.57831 ,127.00633 
미술관,인사아트센터,3호선,안국역,서울 종로구 관훈동 188,37.57385 ,126.98460 
미술관,인사아트프라자갤러리,"1호선, 3호선, 5호선",종로3가역,서울 종로구 관훈동 21,37.57385 ,126.98558 
미술관,일민미술관,5호선,광화문역,서울 종로구 세종로 139,37.56981 ,126.97766 
문화원,잠실종합운동장,"2호선, 9호선",종합운동장역,서울 송파구 올림픽로 25,37.51489 ,127.07308 
기타,잠실창작스튜디오,"2호선, 9호선",종합운동장역,서울 송파구 올림픽로25,37.51489 ,127.07308 
미술관,장디자인아트,수인분당선,압구정로데오역,서울 강남구 도산대로67길 27,37.52588 ,127.04425 
문화예술회관,장지공방,8호선,장지역,서울 송파구 충민로 10,,
문화원,장충체육관,3호선,동대입구역,서울 중구 장충동2가 220-102,37.55820 ,127.00672 
문화예술회관,재미랑,4호선,명동역,서울 중구 퇴계로20길 42,37.55828 ,126.98627 
박물관/기념관,전쟁기념관,"4호선, 6호선",삼각지역,서울 용산구 용산동1가 8,37.53666 ,126.97714 
유적지,전쟁기념관전사자명비,"4호선, 6호선",삼각지역,서울 용산구 이태원로 29,37.53663 ,126.97715 
박물관/기념관,전태일기념관,"2호선, 3호선",을지로3가역,서울 종로구 청계천로 105,37.56845 ,126.98931 
공연장,전통연희상설극장 광화문아트홀,3호선,독립문역,서울 종로구 사직동 284-1,37.57429 ,126.96461 
공연장,정동극장,"1호선, 2호선",시청역,서울 중구 정동 8-11 길 43,37.56601 ,126.97284 
유적지,정릉,우이신설경전철,정릉역,서울 성북구 아리랑로19길 116,37.60212 ,127.00609 
유적지,정현왕후릉,"9호선, 수인분당선",선정릉역,서울 강남구 선릉로 100길 1,37.51047 ,127.04717 
공연장,정효아트센터 음악당,3호선,남부터미널역,서울 서초구 사임당로18길 52-2,37.48760 ,127.01938 
유적지,조계사,1호선,종각역,서울 종로구 우정국로 55,37.57396 ,126.98226 
유적지,조선선종선릉,"9호선, 수인분당선",선정릉역,서울 강남구 선릉로 100길 1,37.50734 ,127.04715 
미술관,조선일보미술관,5호선,광화문역,서울 중구 태평로1가 61-28,,
유적지,조선중종정릉,"2호선, 수인분당선",선릉역,서울 강남구 선릉로 100길 1,37.50734 ,127.04715 
유적지,조선지광사터,5호선,광화문역,서울 종로구 종로3길 33,37.57199 ,126.97885 
박물관/기념관,조세박물관,5호선,광화문역,서울 종로구 수송동 104,37.57415 ,126.97983 
미술관,조형갤러리,1호선,종각역,서울 종로구 인사동 194-27 5길 29,,
미술관,종로구립 고희동미술관,3호선,안국역,서울 종로구 창덕궁5길 40,37.58314 ,126.98896 
미술관,종로구립 박노수미술관,3호선,경복궁역,서울 종로구 옥인1길 34,37.58133 ,126.96681 
공연장,종로구민회관,"1호선, 6호선",동묘앞역,서울 종로구 창신동 222-8,37.57349 ,127.01437 
문화예술회관,종로문화재단,5호선,광화문역,서울 종로구 새문안로3길 3,37.57081 ,126.97242 
공연/전시장,종로문화재단 윤동주문학관,3호선,경복궁역,서울 종로구 창의문로 119,37.57081 ,126.97242 
유적지,종묘(세계문화유산),"1호선, 3호선, 5호선",종로3가역,서울 종로구 종로 157,37.57460 ,126.99414 
박물관/기념관,종이나라박물관,3호선,동대입구역,서울 중구 장충동1가 62-35,37.55965 ,127.00615 
기타,중구평생학습센터,"2호선, 5호선",을지로4가역,서울 중구 예관동 120-1,,
기타,중랑구민체육센터,6호선,봉화산역,서울 중랑구 신내로15길 189,,
공연장,중랑문화체육관,7호선,사가정역,서울 중랑구 사가정로72길 47,,
미술관,중랑아트센터,"경의선, 경춘선",망우역,서울 중랑구 상봉동 500,37.59850 ,127.09196 
기타,중랑평생학습관,"경의선, 경춘선",망우역,서울 중랑구 망우로67길 10,,
박물관/기념관,짚풀생활사박물관,4호선,혜화역,서울 종로구 명륜2가 8-4,37.58489 ,126.99995 
유적지,창경궁,4호선,혜화역,서울 종로구 창경궁로 185,37.57878 ,126.99488 
유적지,창덕궁,3호선,안국역,서울 종로구 율곡로 99,37.57959 ,126.99106 
문화원,창동스포츠문화컴플렉스,"1호선, 4호선",창동역,서울 도봉구 노해로69길 132,,
공연장,창무예술원- 드 포스트,"2호선, 경의선, 공항철도",홍대입구역,서울 마포구 창전동 5-9,,
유적지,창빈안씨묘역,"4호선, 9호선",동작역,서울 동작구 동작동 299-10,37.49703 ,126.97028 
문화예술회관,창신소통공작소,"1호선, 6호선",동묘앞역,서울 종로구 창신6가길 47,37.57578 ,127.01232 
유적지,천상열차분야지도각석,3호선,경복궁역,서울 종로구 효자로 12,37.57799 ,126.97427 
박물관/기념관,청계천박물관 ,2호선,용두역,서울 성동구 청계천로 530,37.57135 ,127.03505 
유적지,청권사,2호선,방배역,서울 서초구 방배동,37.48954 ,127.00007 
공연장,청년허브,"3호선, 6호선",불광역,서울 은평구 통일로 684,37.60863 ,126.93377 
기타,청춘극장,5호선,서대문역,서울 중구 새문안로 22,37.56710 ,126.96863 
기타,청춘삘딩,1호선,독산역,서울 금천구 시흥대로138길 10-11,,
미술관,청화랑,7호선,청담역,서울 강남구 삼성로147길 4,37.52272 ,127.04763 
박물관/기념관,체신기념관,3호선,안국역,서울 종로구 견지동 39-7,37.57134 ,127.03505 
유적지,초안산조선시대분묘군,4호선,수유역,서울 도봉구 창동,37.63792 ,127.04508 
박물관/기념관,초전섬유 퀼트박물관,4호선,명동역,서울 중구 남산동1가 20,37.55815 ,126.98423 
공연/전시장,충무로영상센터 오!재미동,"3호선, 4호선",충무로역,서울 중구 퇴계로 199,37.56128 ,126.99431 
공연장,충무아트센터,"2호선, 6호선",신당역,서울 중구 퇴계로 387,37.56605 ,127.01465 
유적지,충숙공이상길묘역,7호선,하계역,서울 노원구 한글비석로 144,37.63986 ,127.07689 
공연장,충정로난타극장,5호선,충정로역,서울 서대문구 충정로3가 476,,
유적지,충헌공김구묘역,9호선,한성백제역,서울 송파구 올림픽로 424,37.51924 ,127.12070 
미술관,카이스갤러리,수인분당선,압구정로데오역,서울 강남구 청담동 압구정로80길 17,37.52463 ,127.04534 
기타,카페 1257,7호선,학동역,서울 강남구 학동로 146,,
박물관/기념관,코리아나화장박물관,3호선,압구정역,서울 강남구 언주로 827,37.56605 ,127.01466 
공연장,코엑스 오디토리움,9호선,봉은사역,서울 강남구 삼성동 159,37.51301 ,127.05854 
미술관,코엑스전시장,2호선,삼성역,서울 강남구 삼성동 159-1,37.51172 ,127.05916 
공연장,크리에이터스 스페이스,6호선,안암역,서울 동대문구 안암로 86-1,37.58349762647474127.03058027431109,127.03058 
미술관,킵인터치 서울,3호선,안국역,서울 종로구 북촌로1길 13,37.57732 ,126.98497 
박물관/기념관,태권도기념관,"2호선, 신분당선",강남역,서울 강남구 역삼동 635,37.50171 ,127.03081 
유적지,태릉.강릉,6호선,화랑대역,서울 노원구 화랑로 681,,
미술관,토탈미술관,3호선,경복궁역,서울 종로구 평창동 465-2,37.61225 ,126.97566 
미술관,토포하우스,3호선,안국역,서울 종로구 관훈동 184,37.57408 ,126.98431 
미술관,통의동 보안여관,3호선,경복궁역,서울 동대문구 청계천로 517,37.57912 ,126.97368 
공연장,팝콘D스퀘어,"1호선, 경의선",용산역,서울 용산구 한강대로23길 55,37.52890 ,126.96318 
박물관/기념관,평강성서유물박물관,1호선,오류동역,서울 구로구 오류동 150-15,37.49192 ,126.84402 
공연/전시장,평화문화진지,"1호선, 7호선",도봉산역,서울 도봉구 마들로 932,37.69080 ,127.04719 
미술관,포스코미술관,"2호선, 수인분당선",선릉역,서울 강남구 대치동 892,"37.50586444381856,",127.05611 
공연장,폴리미디어씨어터,4호선,혜화역,서울 종로구 동숭동 1-75,37.58226 ,127.00363 
공연장,폼텍웍스홀,"2호선, 6호선",합정역,서울 마포구 잔다리로3길 34,37.55066 ,126.91787 
미술관,표갤러리,3호선,경복궁역,서울 종로구 자하문로5길 18-4,37.57789 ,126.97080 
공연/전시장,플랫폼창동61,"1호선, 4호선",창동역,서울 도봉구 마들로11길 74,37.65437 ,127.04881 
미술관,필갤러리(Fill Gallery),경의선,한남역,서울 용산구 유엔빌리지길 24,37.53447 ,127.00960 
공연장,하라스튜디오,"1호선, 7호선",가산디지털단지역,서울 금천구 가산디지털1로 181,37.47706 ,126.88269 
미술관,학고재,3호선,안국역,서울 종로구 소격동 70,37.58036 ,126.98026 
기타,한강공원,수인분당선,서울숲역,서울 성동구 강변북로 257,,
박물관/기념관,한국가구박물관,4호선,한성대입구역,서울 성북구 성북동 330-577,37.60003 ,126.99344 
박물관/기념관,한국금융사박물관,5호선,광화문역,서울 중구 태평로1가 62-12,37.56860 ,126.97643 
박물관/기념관,한국미술박물관,3호선,안국역,서울 종로구 창덕궁길 73,37.58087 ,126.98890 
박물관/기념관,한국분재박물관,신분당선,양재역,서울 서초구 신흥안길 40-10,37.45340 ,127.07546 
박물관/기념관,한국불교역사문화기념관,3호선,안국역,서울 종로구 견지동 45,37.57459 ,126.98196 
기타,한국영상자료원,경의선,수색역,서울 마포구 월드컵북로 400,37.58043 ,126.88998 
박물관/기념관,한국영화박물관,경의선,수색역,서울 마포구 상암동 1602,37.58045 ,126.88947 
박물관/기념관,한국은행 화폐금융박물관,4호선,회현역,서울 중구 남대문로3가 110,37.56208 ,126.98056 
공연장,한국의 집 민속극장,"3호선, 4호선",충무로역,서울 중구 필동2가 80-2,37.56021 ,126.99472 
박물관/기념관,한국천주교순교자박물관,"2호선, 6호선",합정역,서울 마포구 토정로 6,37.54431 ,126.91162 
미술관,한미사진미술관,9호선,한성백제역,서울 송파구 방이동 45,37.51659 ,127.11392 
박물관/기념관,한상수자수박물관,4호선,한성대입구역,서울 성북구 성북동 성북로16길 4-10,37.59355 ,127.00093 
박물관/기념관,한성백제박물관,9호선,한성백제역,서울 송파구 위례성대로 71,37.51554 ,127.12069 
박물관/기념관,한양대학교 박물관,2호선,한양대역,서울 성동구 왕십리로 222,37.55525 ,127.04472 
박물관/기념관,한양도성 유적전시관,4호선,회현역,서울 중구 회현동1가 100-267,37.55394 ,126.98221 
박물관/기념관,한양도성박물관,"1호선, 4호선",동대문역,서울 종로구 율곡로 283,37.57237 ,127.00883 
공연장,한전아트센터,"3호선, 신분당선",양재역,서울 서초구 효령로72길 60,37.48566 ,127.02804 
박물관/기념관,한전아트센터박물관,"3호선, 신분당선",양재역,서울 서초구 서초동 1355,37.48566 ,127.02804 
박물관/기념관,함석헌기념관,4호선,쌍문역,서울 도봉구 도봉로123길 33-6,37.51559 ,127.12066 
유적지,함양여씨묘역,2호선,양천구청,서울 구로구 고척동 산6-2,37.50727 ,126.85526 
기타,해공체육문화센터,"5호선, 8호선",천호역,서울 강동구 천호동 399-1,,
공연장,해바라기 소극장,4호선,혜화역,서울 종로구 동숭길 76,37.57237 ,127.00883 
공연장,허리우드 스카이쇼,5호선,서대문역,서울 종로구 삼일대로 428,,
유적지,허준기념관,9호선,가양역,서울 강서구 허준로 87,37.56789 ,126.85097 
유적지,헌인릉,신분당선선,양재시민의숲역,서울 서초구 헌인릉길 36-10,37.46498 ,127.08178 
박물관/기념관,혜곡최순우 기념관,4호선,한성대입구역,서울 성북구 성북동 126-20,37.59291 ,127.00032 
유적지,호국지장사,"4호선, 9호선",동작역,서울 동작구 현충로 210,37.49870 ,126.96472 
미술관,호리아트스페이스,수인분당선,압구정로데오역,서울 강남구 압구정로80길 26,37.52479 ,127.04459 
박물관/기념관,호림박물관,2호선,신대방역,서울 관악구 신림동 1707,37.48093 ,126.91697 
공연장,홍익대 대학로 아트센터,1호선,종로5가역,서울 종로구 대학로 57,37.57651 ,127.00152 
박물관/기념관,화정박물관,3호선,경복궁역,서울 종로구 평창동 평창8길 3,37.60459 ,126.96597 
미술관,환기미술관,3호선,경복궁역,서울 종로구 부암동 210-8,37.59443 ,126.96631 
박물관/기념관,황학정 국궁전시관,3호선,경복궁역,서울 종로구 사직로9길 15-32,37.57703 ,126.96478 
유적지,효간공이정영묘역,7호선,남성역,서울 동작구 사당동 산44-7,37.48206 ,126.96850 
유적지,효령대군릉,2호선,방배역,서울 서초구 방배동 산24-2,37.48969 ,127.00012 
유적지,효령대군이보묘역,2호선,방배역,서울 서초구 효령로 135,37.48954 ,127.00010 
기타,흑석체육센터,9호선,흑석역,서울 동작구 흑석동 현충로 73,,
박물관/기념관,쇳대 박물관,1호선. 2호선,동대문역,서울 종로구 이화동 이화장길 100,37.57978 ,127.00459 
